{"type": "FeatureCollection", "features": [ {"type": "Feature", "properties": {"norad_id": 41469, "name": "IRNSS-1G", "group": "gnss", "lat": 3.915818862085067, "lon": 156.54125712409433, "alt_km": 35785.190925673145, "timestamp": "2025-12-27T19:21:58.996669+00:00", "meta": {"OBJECT_NAME": "IRNSS-1G", "OBJECT_ID": "2016-027A", "EPOCH": "2025-12-27T10:56:21.825024", "MEAN_MOTION": 1.00272659, "ECCENTRICITY": 0.0002741, "INCLINATION": 4.7706, "RA_OF_ASC_NODE": 101.722, "ARG_OF_PERICENTER": 325.6609, "MEAN_ANOMALY": 322.4712, "EPHEMERIS_TYPE": 0, "CLASSIFICATION_TYPE": "U", "NORAD_CAT_ID": 41469, "ELEMENT_SET_NO": 999, "REV_AT_EPOCH": 3545, "BSTAR": 0, "MEAN_MOTION_DOT": -3.13e-06, "MEAN_MOTION_DDOT": 0}, "tle": {"line1": "1 41469U 16027A   25361.45580816 -.00000313  00000+0  00000+0 0  9990", "line2": "2 41469   4.7706 101.7220 0002741 325.6609 322.4712  1.00272659 35458"}}, "geometry": {"type": "Point", "coordinates": [156.54125712409433, 3.915818862085067]}}, {"type": "Feature", "properties": {"norad_id": 41549, "name": "GSAT0211 (GALILEO 14)", "group": "gnss", "lat": 0.13392702126642334, "lon": 46.327700434000754, "alt_km": 23233.87029388179, "timestamp": "2025-12-27T19:21:58.996680+00:00", "meta": {"OBJECT_NAME": "GSAT0211 (GALILEO 14)", "OBJECT_ID": "2016-030A", "EPOCH": "2025-12-25T18:06:09.128448", "MEAN_MOTION": 1.70473226, "ECCENTRICITY": 0.00039908, "INCLINATION": 55.1481, "RA_OF_ASC_NODE": 226.465, "ARG_OF_PERICENTER": 16.0221, "MEAN_ANOMALY": 344.0794, "EPHEMERIS_TYPE": 0, "CLASSIFICATION_TYPE": "U", "NORAD_CAT_ID": 41549, "ELEMENT_SET_NO": 999, "REV_AT_EPOCH": 5971, "BSTAR": 0, "MEAN_MOTION_DOT": 7e-07, "MEAN_MOTION_DDOT": 0}, "tle": {"line1": "1 41549U 16030A   25359.75427232  .00000070  00000+0  00000+0 0  9994", "line2": "2 41549  55.1481 226.4650 0003990  16.0221 344.0794  1.70473226 59712"}}, "geometry": {"type": "Point", "coordinates": [46.327700434000754, 0.13392702126642334]}}, {"type": "Feature", "properties": {"norad_id": 41550, "name": "GSAT0210 (GALILEO 13)", "group": "gnss", "lat": 17.7393747869014, "lon": -120.70522671967785, "alt_km": 23221.830357600065, "timestamp": "2025-12-27T19:21:58.996692+00:00", "meta": {"OBJECT_NAME": "GSAT0210 (GALILEO 13)", "OBJECT_ID": "2016-030B", "EPOCH": "2025-12-26T00:16:47.841312", "MEAN_MOTION": 1.70473562, "ECCENTRICITY": 5.77e-05, "INCLINATION": 55.1475, "RA_OF_ASC_NODE": 226.456, "ARG_OF_PERICENTER": 190.7717, "MEAN_ANOMALY": 169.315, "EPHEMERIS_TYPE": 0, "CLASSIFICATION_TYPE": "U", "NORAD_CAT_ID": 41550, "ELEMENT_SET_NO": 999, "REV_AT_EPOCH": 5971, "BSTAR": 0, "MEAN_MOTION_DOT": 7e-07, "MEAN_MOTION_DDOT": 0}, "tle": {"line1": "1 41550U 16030B   25360.01166483  .00000070  00000+0  00000+0 0  9995", "line2": "2 41550  55.1475 226.4560 0000577 190.7717 169.3150  1.70473562 59712"}}, "geometry": {"type": "Point", "coordinates": [-120.70522671967785, 17.7393747869014]}}, {"type": "Feature", "properties": {"norad_id": 41586, "name": "BEIDOU-2 G7 (C03)", "group": "gnss", "lat": 1.6937039744518574, "lon": 137.51001532755097, "alt_km": 35773.857722212495, "timestamp": "2025-12-27T19:21:58.996702+00:00", "meta": {"OBJECT_NAME": "BEIDOU-2 G7 (C03)", "OBJECT_ID": "2016-037A", "EPOCH": "2025-12-27T11:48:49.644864", "MEAN_MOTION": 1.00277493, "ECCENTRICITY": 0.0005217, "INCLINATION": 1.7909, "RA_OF_ASC_NODE": 67.9201, "ARG_OF_PERICENTER": 7.7037, "MEAN_ANOMALY": 308.2431, "EPHEMERIS_TYPE": 0, "CLASSIFICATION_TYPE": "U", "NORAD_CAT_ID": 41586, "ELEMENT_SET_NO": 999, "REV_AT_EPOCH": 516, "BSTAR": 0, "MEAN_MOTION_DOT": -3.32e-06, "MEAN_MOTION_DDOT": 0}, "tle": {"line1": "1 41586U 16037A   25361.49224126 -.00000332  00000+0  00000+0 0  9995", "line2": "2 41586   1.7909  67.9201 0005217   7.7037 308.2431  1.00277493  5162"}}, "geometry": {"type": "Point", "coordinates": [137.51001532755097, 1.6937039744518574]}}, {"type": "Feature", "properties": {"norad_id": 41589, "name": "EUTELSAT 117 WEST B (WAAS/PRN 131)", "group": "gnss", "lat": 0.013739587756210472, "lon": -89.97886864311823, "alt_km": 35785.23571456053, "timestamp": "2025-12-27T19:21:58.996712+00:00", "meta": {"OBJECT_NAME": "EUTELSAT 117 WEST B (WAAS/PRN 131)", "OBJECT_ID": "2016-038B", "EPOCH": "2025-12-27T07:38:14.830080", "MEAN_MOTION": 1.00273464, "ECCENTRICITY": 1.53e-05, "INCLINATION": 0.0038, "RA_OF_ASC_NODE": 165.68, "ARG_OF_PERICENTER": 47.668, "MEAN_ANOMALY": 240.2602, "EPHEMERIS_TYPE": 0, "CLASSIFICATION_TYPE": "U", "NORAD_CAT_ID": 41589, "ELEMENT_SET_NO": 999, "REV_AT_EPOCH": 3494, "BSTAR": 0, "MEAN_MOTION_DOT": 1.1e-07, "MEAN_MOTION_DDOT": 0}, "tle": {"line1": "1 41589U 16038B   25361.31822720  .00000011  00000+0  00000+0 0  9997", "line2": "2 41589   0.0038 165.6800 0000153  47.6680 240.2602  1.00273464 34949"}}, "geometry": {"type": "Point", "coordinates": [-89.97886864311823, 0.013739587756210472]}}, {"type": "Feature", "properties": {"norad_id": 41859, "name": "GSAT0207 (GALILEO 15)", "group": "gnss", "lat": -25.118893683278994, "lon": -55.30444035855595, "alt_km": 23227.495386889976, "timestamp": "2025-12-27T19:21:58.996722+00:00", "meta": {"OBJECT_NAME": "GSAT0207 (GALILEO 15)", "OBJECT_ID": "2016-069A", "EPOCH": "2025-12-22T04:24:39.710016", "MEAN_MOTION": 1.70474442, "ECCENTRICITY": 0.00024396, "INCLINATION": 55.3874, "RA_OF_ASC_NODE": 105.9888, "ARG_OF_PERICENTER": 317.4324, "MEAN_ANOMALY": 42.5257, "EPHEMERIS_TYPE": 0, "CLASSIFICATION_TYPE": "U", "NORAD_CAT_ID": 41859, "ELEMENT_SET_NO": 999, "REV_AT_EPOCH": 5638, "BSTAR": 0, "MEAN_MOTION_DOT": 6e-08, "MEAN_MOTION_DDOT": 0}, "tle": {"line1": "1 41859U 16069A   25356.18379294  .00000006  00000+0  00000+0 0  9997", "line2": "2 41859  55.3874 105.9888 0002439 317.4324  42.5257  1.70474442 56382"}}, "geometry": {"type": "Point", "coordinates": [-55.30444035855595, -25.118893683278994]}}, {"type": "Feature", "properties": {"norad_id": 41860, "name": "GSAT0212 (GALILEO 16)", "group": "gnss", "lat": -44.96045074052217, "lon": 62.29652035933882, "alt_km": 23226.049588122474, "timestamp": "2025-12-27T19:21:58.996732+00:00", "meta": {"OBJECT_NAME": "GSAT0212 (GALILEO 16)", "OBJECT_ID": "2016-069B", "EPOCH": "2025-12-26T03:26:41.871552", "MEAN_MOTION": 1.70474669, "ECCENTRICITY": 0.00020518, "INCLINATION": 55.3873, "RA_OF_ASC_NODE": 105.8745, "ARG_OF_PERICENTER": 19.1308, "MEAN_ANOMALY": 340.872, "EPHEMERIS_TYPE": 0, "CLASSIFICATION_TYPE": "U", "NORAD_CAT_ID": 41860, "ELEMENT_SET_NO": 999, "REV_AT_EPOCH": 5670, "BSTAR": 0, "MEAN_MOTION_DOT": 1.8e-07, "MEAN_MOTION_DDOT": 0}, "tle": {"line1": "1 41860U 16069B   25360.14354018  .00000018  00000+0  00000+0 0  9990", "line2": "2 41860  55.3873 105.8745 0002051  19.1308 340.8720  1.70474669 56708"}}, "geometry": {"type": "Point", "coordinates": [62.29652035933882, -44.96045074052217]}}, {"type": "Feature", "properties": {"norad_id": 41861, "name": "GSAT0213 (GALILEO 17)", "group": "gnss", "lat": 52.77682634393126, "lon": 171.03514447801777, "alt_km": 23223.582075876988, "timestamp": "2025-12-27T19:21:58.996742+00:00", "meta": {"OBJECT_NAME": "GSAT0213 (GALILEO 17)", "OBJECT_ID": "2016-069C", "EPOCH": "2025-12-25T22:11:16.691136", "MEAN_MOTION": 1.70474838, "ECCENTRICITY": 0.0002917, "INCLINATION": 55.3899, "RA_OF_ASC_NODE": 105.8882, "ARG_OF_PERICENTER": 282.7957, "MEAN_ANOMALY": 77.1667, "EPHEMERIS_TYPE": 0, "CLASSIFICATION_TYPE": "U", "NORAD_CAT_ID": 41861, "ELEMENT_SET_NO": 999, "REV_AT_EPOCH": 5656, "BSTAR": 0, "MEAN_MOTION_DOT": 1.8e-07, "MEAN_MOTION_DDOT": 0}, "tle": {"line1": "1 41861U 16069C   25359.92449874  .00000018  00000+0  00000+0 0  9990", "line2": "2 41861  55.3899 105.8882 0002917 282.7957  77.1667  1.70474838 56560"}}, "geometry": {"type": "Point", "coordinates": [171.03514447801777, 52.77682634393126]}}, {"type": "Feature", "properties": {"norad_id": 41862, "name": "GSAT0214 (GALILEO 18)", "group": "gnss", "lat": -11.741300025436633, "lon": 97.58597443061188, "alt_km": 23221.273741885445, "timestamp": "2025-12-27T19:21:58.996751+00:00", "meta": {"OBJECT_NAME": "GSAT0214 (GALILEO 18)", "OBJECT_ID": "2016-069D", "EPOCH": "2025-12-27T05:50:53.189088", "MEAN_MOTION": 1.70474774, "ECCENTRICITY": 0.0001607, "INCLINATION": 55.3883, "RA_OF_ASC_NODE": 105.8444, "ARG_OF_PERICENTER": 288.5964, "MEAN_ANOMALY": 71.3802, "EPHEMERIS_TYPE": 0, "CLASSIFICATION_TYPE": "U", "NORAD_CAT_ID": 41862, "ELEMENT_SET_NO": 999, "REV_AT_EPOCH": 5671, "BSTAR": 0, "MEAN_MOTION_DOT": 1.5e-07, "MEAN_MOTION_DDOT": 0}, "tle": {"line1": "1 41862U 16069D   25361.24367117  .00000015  00000+0  00000+0 0  9995", "line2": "2 41862  55.3883 105.8444 0001607 288.5964  71.3802  1.70474774 56718"}}, "geometry": {"type": "Point", "coordinates": [97.58597443061188, -11.741300025436633]}}, {"type": "Feature", "properties": {"norad_id": 42709, "name": "SES-15 (WAAS/PRN 133)", "group": "gnss", "lat": -0.036250764980389656, "lon": -102.17050976483578, "alt_km": 35786.87359838889, "timestamp": "2025-12-27T19:21:58.996764+00:00", "meta": {"OBJECT_NAME": "SES-15 (WAAS/PRN 133)", "OBJECT_ID": "2017-026A", "EPOCH": "2025-12-27T07:38:38.830272", "MEAN_MOTION": 1.00267743, "ECCENTRICITY": 9e-05, "INCLINATION": 0.0202, "RA_OF_ASC_NODE": 336.3398, "ARG_OF_PERICENTER": 6.9478, "MEAN_ANOMALY": 98.251, "EPHEMERIS_TYPE": 0, "CLASSIFICATION_TYPE": "U", "NORAD_CAT_ID": 42709, "ELEMENT_SET_NO": 999, "REV_AT_EPOCH": 571, "BSTAR": 0, "MEAN_MOTION_DOT": 8.3e-07, "MEAN_MOTION_DDOT": 0}, "tle": {"line1": "1 42709U 17026A   25361.31850498  .00000083  00000+0  00000+0 0  9992", "line2": "2 42709   0.0202 336.3398 0000900   6.9478  98.2510  1.00267743  5714"}}, "geometry": {"type": "Point", "coordinates": [-102.17050976483578, -0.036250764980389656]}}]}